hotspot_number,lsg_code,label,label_malayalam,locality,district,type,status,listed_on,unlisted_on,last_updated_on,notes,reference,latitude,longitude
1,G021003,Chathannoor,ചാത്തന്നൂര്‍,Chathannoor,Kollam,Panchayat,Unlisted,2020-04-26,2020-05-07,2020-05-07,,DHS bulletin from Listed On Date,,
2,G020201,Sasthamcotta,ശാസ്താംകോട്ട,Sasthamcotta,Kollam,Panchayat,Unlisted,2020-04-26,2020-05-07,2020-05-07,,DHS bulletin from Listed On Date,,
3,G050708,Manarkkad,മണര്‍കാട്,Manarkkad,Kottayam,Panchayat,Unlisted,2020-04-26,2020-05-14,2020-05-14,Containment Zone: Whole LSG,DHS bulletin from Listed On Date,,
4,C070100,Kochi,കൊച്ചി,Kochi,Ernakulam,Corporation,Unlisted,2020-04-22,2020-05-07,2020-04-27,,DHS bulletin from Listed On Date,,
5,G060501,Idukki Kanjikuzhi,ഇടുക്കി കഞ്ഞിക്കുഴി,Idukki Kanjikuzhi,Idukki,Panchayat,Unlisted,2020-04-22,2020-04-30,2020-04-30,,DHS bulletin from Listed On Date,,
6,G060805,Elappara,ഏലപ്പാറ,Elappara,Idukki,Panchayat,Unlisted,2020-04-24,2020-05-14,2020-05-14,"Containment Zones: Wards 11, 12, 13",DHS bulletin from Listed On Date,,
7,G060505,Vazhathope,വാഴത്തോപ്പ്,Vazhathope,Idukki,Panchayat,Unlisted,2020-04-24,2020-05-07,2020-05-06,"Containment Zone: Wards 8, 14",DHS bulletin from Listed On Date,,
8,M060100,Thodupuzha,തൊടുപുഴ,Thodupuzha,Idukki,Municipality,Unlisted,2020-04-22,2020-04-30,2020-04-30,,DHS bulletin from Listed On Date,,
9,G060305,Nedumkandam,നെടുങ്കണ്ടം,Nedumkandam,Idukki,Panchayat,Unlisted,2020-04-24,2020-05-07,2020-05-06,"Containment Zones: Wards 9, 10, 11",DHS bulletin from Listed On Date,,
10,G060103,Bisonvally,ബൈസണ്‍ വാലി,Bisonvally,Idukki,Panchayat,Unlisted,2020-04-22,2020-04-30,2020-04-30,,DHS bulletin from Listed On Date,,
11,G060506,Mariyapuram,മരിയാപുരം,Mariyapuram,Idukki,Panchayat,Unlisted,2020-04-22,2020-04-30,2020-04-30,,DHS bulletin from Listed On Date,,
12,G060302,Senapathi,സേനാപതി,Senapathi,Idukki,Panchayat,Unlisted,2020-04-22,2020-05-07,2020-05-06,Containment Zone: Ward 3,DHS bulletin from Listed On Date,,
117,M120200,Mananthavadi,മാനന്തവാടി,Mananthavadi,Wayanad,Municipality,Active,2020-05-03,,2020-05-19,Containment Zones: All Wards,DHS bulletin from Listed On Date,,
14,G130607,Peralassery,പെരളശ്ശേരി,Peralassery,Kannur,Panchayat,Unlisted,2020-04-22,2020-05-14,2020-05-14,Containment Zone: Whole LSG,DHS bulletin from Listed On Date,,
15,M130300,Koothuparambu,കൂത്തുപറമ്പ്,Koothuparambu,Kannur,Municipality,Unlisted,2020-04-22,2020-05-14,2020-05-14,Containment Zone: Whole LSG,DHS bulletin from Listed On Date,,
16,G130906,Kottayam,കോട്ടയം,Kottayam,Kannur,Panchayat,Unlisted,2020-04-22,2020-05-14,2020-05-14,Containment Zone: Whole LSG,DHS bulletin from Listed On Date,,
17,G130903,Kunnothuparamba,കുന്നാത്തുപറമ്പ്,Kunnothuparamba,Kannur,Panchayat,Unlisted,2020-04-22,2020-05-14,2020-05-14,Containment Zone: Whole LSG,DHS bulletin from Listed On Date,,
18,G130306,Naduvil,നടുവില്‍,Naduvil,Kannur,Panchayat,Unlisted,2020-04-22,2020-05-07,2020-05-06,Containment Zone: Whole LSG,DHS bulletin from Listed On Date,,
19,G130805,Mokeri,മൊകേരി,Mokeri,Kannur,Panchayat,Unlisted,2020-04-22,2020-05-14,2020-05-14,Containment Zone: Whole LSG,DHS bulletin from Listed On Date,,
20,G130806,Panniyannur,പന്ന്യന്നൂര്‍,Panniyannur,Kannur,Panchayat,Unlisted,2020-04-22,2020-05-07,2020-05-06,Containment Zone: Whole LSG,DHS bulletin from Listed On Date,,
21,M130700,Panoor,പാനൂര്‍,Panoor,Kannur,Municipality,Unlisted,2020-04-22,2020-05-14,2020-05-14,Containment Zone: Whole LSG,DHS bulletin from Listed On Date,,
22,G130203,Madayi,മാടായി,Madayi,Kannur,Panchayat,Unlisted,2020-04-22,2020-05-07,2020-05-06,Containment Zone: Whole LSG,DHS bulletin from Listed On Date,,
23,G131101,Kanichar,കണിച്ചാര്‍,Kanichar,Kannur,Panchayat,Unlisted,2020-04-23,2020-05-07,2020-05-06,Containment Zone: Whole LSG,DHS bulletin from Listed On Date,,
24,G130506,Pappinisseri,പാപ്പിനിശ്ശേരി,Pappinisseri,Kannur,Panchayat,Unlisted,2020-04-22,2020-05-14,2020-05-14,Containment Zone: Whole LSG,DHS bulletin from Listed On Date,,
25,M130400,Payyannur,പയ്യന്നൂര്‍,Payyannur,Kannur,Municipality,Unlisted,2020-04-22,2020-05-07,2020-05-06,Containment Zone: Whole LSG,DHS bulletin from Listed On Date,,
26,G130204,Mattool,മാട്ടൂല്‍,Mattool,Kannur,Panchayat,Unlisted,2020-04-22,2020-05-07,2020-05-06,Containment Zone: Whole LSG,DHS bulletin from Listed On Date,,
27,G130705,Muzhappilangad,മുഴപ്പിലങ്ങാട്,Muzhappilangad,Kannur,Panchayat,Unlisted,2020-04-22,2020-05-07,2020-05-06,Containment Zone: Whole LSG,DHS bulletin from Listed On Date,,
28,G130605,Chembilode,ചെമ്പിലോട്,Chembilode,Kannur,Panchayat,Unlisted,2020-04-22,2020-04-30,2020-04-30,,DHS bulletin from Listed On Date,,
29,M130800,Iritty,ഇരിട്ടി,Iritty,Kannur,Municipality,Unlisted,2020-04-22,2020-04-30,2020-04-30,,DHS bulletin from Listed On Date,,
30,G130902,Chittariparamba,ചിറ്റാരിപ്പറമ്പ്,Chittariparamba,Kannur,Panchayat,Unlisted,2020-04-22,2020-05-07,2020-05-06,Containment Zone: Whole LSG,DHS bulletin from Listed On Date,,
121,G120103,Thirunelli,തിരുനെല്ലി,Thirunelli,Wayanad,Panchayat,Active,2020-05-05,,2020-05-19,Containment Zones: All Wards,DHS bulletin from Listed On Date,,
32,G130305,Chapparapadavu,ചപ്പാരപ്പടവ്,Chapparapadavu,Kannur,Panchayat,Unlisted,2020-04-22,2020-04-30,2020-04-30,,DHS bulletin from Listed On Date,,
33,G130202,Ezhome,ഏഴോം,Ezhome,Kannur,Panchayat,Unlisted,2020-04-22,2020-05-14,2020-05-14,Containment Zone: Whole LSG,DHS bulletin from Listed On Date,,
34,G130302,Chengalai,ചെങ്ങളായി,Chengalai,Kannur,Panchayat,Unlisted,2020-04-23,2020-05-07,2020-05-06,Containment Zone: Whole LSG,DHS bulletin from Listed On Date,,
35,G130704,New Mahe,ന്യൂ മാഹി,New Mahe,Kannur,Panchayat,Unlisted,2020-04-22,2020-05-07,2020-05-06,Containment Zone: Whole LSG,DHS bulletin from Listed On Date,,
36,G131105,Kolayade,കോളയാട്,Kolayade,Kannur,Panchayat,Unlisted,2020-04-23,2020-05-07,2020-05-06,Containment Zone: Whole LSG,DHS bulletin from Listed On Date,,
37,G131005,Koodali,കൂടാളി,Koodali,Kannur,Panchayat,Unlisted,2020-04-22,2020-05-07,2020-05-06,Containment Zone: Whole LSG,DHS bulletin from Listed On Date,,
38,G130401,Eruvassy,എരുവേശ്ശി,Eruvassy,Kannur,Panchayat,Unlisted,2020-04-22,2020-04-30,2020-04-30,,DHS bulletin from Listed On Date,,
39,M130500,Thalassery,തലശ്ശേരി,Thalassery,Kannur,Municipality,Unlisted,2020-04-22,2020-04-30,2020-04-30,,DHS bulletin from Listed On Date,,
40,G130904,Mangattidom,മാങ്ങാട്ടിടം,Mangattidom,Kannur,Panchayat,Unlisted,2020-04-22,2020-05-07,2020-05-06,Containment Zone: Whole LSG,DHS bulletin from Listed On Date,,
41,M140200,Kasaragod,കാസര്‍കോഡ്,Kasaragod,Kasaragod,Municipality,Unlisted,2020-04-22,2020-05-07,2020-04-27,,DHS bulletin from Listed On Date,,
42,M140100,Kanhangad,കാഞ്ഞങ്ങാട്,Kanhangad,Kasaragod,Municipality,Unlisted,2020-04-22,2020-04-30,2020-04-30,,DHS bulletin from Listed On Date,,
43,G140303,Madhur,മധൂര്‍,Madhur,Kasaragod,Panchayat,Unlisted,2020-04-22,2020-04-30,2020-04-30,,DHS bulletin from Listed On Date,,
44,G140306,Kumbala,കുമ്പള,Kumbala,Kasaragod,Panchayat,Unlisted,2020-04-22,2020-04-30,2020-04-30,,DHS bulletin from Listed On Date,,
45,G140301,Chengala,ചെങ്കള,Chengala,Kasaragod,Panchayat,Unlisted,2020-04-22,2020-05-14,2020-05-14,"Containment Zone: Wards 17, 18",DHS bulletin from Listed On Date,,
46,G140304,Mogral-Puthur,മൊഗരാല്‍ പുത്തൂര്‍,Mogral-Puthur,Kasaragod,Panchayat,Unlisted,2020-04-22,2020-05-07,2020-04-27,,DHS bulletin from Listed On Date,,
47,G140302,Chammanad,ചെമ്മനാട്,Chammanad,Kasaragod,Panchayat,Unlisted,2020-04-22,2020-05-14,2020-05-14,Containment Zone: Ward 22,DHS bulletin from Listed On Date,,
48,G140203,Muliyar,മുളിയാര്‍,Muliyar,Kasaragod,Panchayat,Unlisted,2020-04-22,2020-05-07,2020-04-27,,DHS bulletin from Listed On Date,,
49,G020501,Kulathupuzha,കുളത്തൂപ്പുഴ,Kulathupuzha,Kollam,Panchayat,Unlisted,2020-04-22,2020-05-07,2020-04-27,,DHS bulletin from Listed On Date,,
50,M020300,Punalur,പുനലൂര്‍,Punalur,Kollam,Municipality,Unlisted,2020-04-22,2020-05-14,2020-05-14,Containment Zone: Ward 17,DHS bulletin from Listed On Date,,
51,G021107,Nilamel,നിലമേല്‍,Nilamel,Kollam,Panchayat,Unlisted,2020-04-22,2020-05-07,2020-04-27,,DHS bulletin from Listed On Date,,
52,G020708,Thrikkaruva,തൃക്കരുവ,Thrikkaruva,Kollam,Panchayat,Unlisted,2020-04-22,2020-05-14,2020-05-14,"Containment Zones: Wards 9, 10, 12, 13",DHS bulletin from Listed On Date,,
53,G050804,Vijayapuram,വിജയപുരം,Vijayapuram,Kottayam,Panchayat,Unlisted,2020-04-24,2020-05-07,2020-05-06,Containment Zone: Whole LSG,DHS bulletin from Listed On Date,,
54,G050803,Panachikkad,പനച്ചിക്കാട്,Panachikkad,Kottayam,Panchayat,Unlisted,2020-04-24,2020-05-14,2020-05-14,Containment Zone: Whole LSG,DHS bulletin from Listed On Date,,
55,M050400,Kottayam,കോട്ടയം,Kottayam,Kottayam,Municipality,Unlisted,2020-04-24,2020-05-14,2020-05-14,Containment Zone: Whole LSG,DHS bulletin from Listed On Date,,
56,G110101,Azhiyur,അഴിയൂര്‍,Azhiyur,Kozhikode,Panchayat,Unlisted,2020-04-22,2020-05-07,2020-05-07,"Containment Zones: Wards 4, 5",DHS bulletin from Listed On Date,,
57,C110100,Kozhikode,കോഴിക്കോട്,Kozhikode,Kozhikode,Corporation,Unlisted,2020-04-22,2020-05-14,2020-05-14,"Containment Zones: Wards 42, 43, 44, 45, 54, 55, 56 ",DHS bulletin from Listed On Date,,
58,G110202,Edacheri,എടച്ചേരി,Edacheri,Kozhikode,Panchayat,Unlisted,2020-04-22,2020-04-30,2020-04-30,,DHS bulletin from Listed On Date,,
59,M110100,Vadakara,വടകര,Vadakara,Kozhikode,Municipality,Unlisted,2020-04-23,2020-05-07,2020-05-07,,DHS bulletin from Listed On Date,,
60,G110103,Eramala,ഏറാമല,Eramala,Kozhikode,Panchayat,Unlisted,2020-04-22,2020-04-30,2020-04-30,,DHS bulletin from Listed On Date,,
61,G111010,Kodencheri,കോടഞ്ചരി,Kodencheri,Kozhikode,Panchayat,Unlisted,2020-04-23,2020-05-07,2020-05-07,Containment Zone: Ward 14,DHS bulletin from Listed On Date,,
62,G110603,Changaroth,ചങ്ങരോത്ത്,Changaroth,Kozhikode,Panchayat,Unlisted,2020-04-22,2020-04-30,2020-04-30,,DHS bulletin from Listed On Date,,
63,G101004,Thennala,തെന്നല,Thennala,Malappuram,Panchayat,Unlisted,2020-04-22,2020-04-30,2020-04-30,,DHS bulletin from Listed On Date,,
64,G101202,Ozhur,ഒഴൂര്‍,Ozhur,Malappuram,Panchayat,Unlisted,2020-04-22,2020-04-30,2020-04-30,,DHS bulletin from Listed On Date,,
65,G101005,Vengara,വേങ്ങര,Vengara,Malappuram,Panchayat,Unlisted,2020-04-22,2020-04-30,2020-04-30,,DHS bulletin from Listed On Date,,
66,G101001,A.R. Nagar,അബ്ദുറഹിമാന്‍ നഗര്‍,A.R. Nagar,Malappuram,Panchayat,Unlisted,2020-04-22,2020-04-30,2020-04-30,,DHS bulletin from Listed On Date,,
67,G100102,Chungathara,ചുങ്കത്തറ,Chungathara,Malappuram,Panchayat,Unlisted,2020-04-22,2020-04-30,2020-04-30,,DHS bulletin from Listed On Date,,
68,M100300,Manjeri,മഞ്ചേരി,Manjeri,Malappuram,Municipality,Unlisted,2020-04-23,2020-05-07,2020-05-07,,DHS bulletin from Listed On Date,,
69,G101302,Thalakkad,തലക്കാട്,Thalakkad,Malappuram,Panchayat,Unlisted,2020-04-22,2020-04-30,2020-04-30,,DHS bulletin from Listed On Date,,
70,G101006,Kannamangalam,കണ്ണമംഗലം,Kannamangalam,Malappuram,Panchayat,Unlisted,2020-04-22,2020-04-30,2020-04-30,,DHS bulletin from Listed On Date,,
71,G091305,Puthussery,പുതുശ്ശേരി,Puthussery,Palakkad,Panchayat,Unlisted,2020-04-22,2020-04-30,2020-04-30,,DHS bulletin from Listed On Date,,
72,G090208,Vilayur,വിളയൂര്‍,Vilayur,Palakkad,Panchayat,Unlisted,2020-04-22,2020-04-30,2020-04-30,,DHS bulletin from Listed On Date,,
73,G090803,Kuzhalmannam,കുഴല്‍മന്ദം,Kuzhalmannam,Palakkad,Panchayat,Unlisted,2020-04-22,2020-05-14,2020-05-14,"Containment Zones: Wards 10, 11, 15",DHS bulletin from Listed On Date,,
74,G091304,Puthuppariyaram,പുതുപ്പരിയാരം,Puthuppariyaram,Palakkad,Panchayat,Unlisted,2020-04-22,2020-04-30,2020-04-30,,DHS bulletin from Listed On Date,,
75,G090106,Thirumittakkode,തിരുമിറ്റക്കോട്,Thirumittakkode,Palakkad,Panchayat,Unlisted,2020-04-22,2020-05-07,2020-05-07,,DHS bulletin from Listed On Date,,
76,,Palakkad District Hospital,പാലക്കാട് ജില്ലാ ആശുപത്രി ,Palakkad,Palakkad,Other,Unlisted,2020-04-22,2020-04-30,2020-04-30,,DHS bulletin from Listed On Date,10.769060099999999,76.6552392
77,G090503,Kottoppadam,കോട്ടോപ്പാടം,Kottoppadam,Palakkad,Panchayat,Unlisted,2020-04-22,2020-04-30,2020-04-30,,DHS bulletin from Listed On Date,10.9980476,76.3837552
78,G090505,Kanjirappuzha,കാഞ്ഞിരപുഴ,Kanjirappuzha,Palakkad,Panchayat,Unlisted,2020-04-22,2020-04-30,2020-04-30,,DHS bulletin from Listed On Date,,
79,G030704,Aranmula,ആറന്മുള,Aranmula,Pathanamthitta,Panchayat,Unlisted,2020-04-22,2020-05-07,2020-05-07,,DHS bulletin from Listed On Date,,
80,G030301,Ayroor,അയിരൂര്‍,Ayroor,Pathanamthitta,Panchayat,Unlisted,2020-04-22,2020-04-30,2020-04-30,,DHS bulletin from Listed On Date,,
81,M030100,Adoor,അടൂര്‍,Adoor,Pathanamthitta,Municipality,Unlisted,2020-04-22,2020-04-30,2020-04-30,,DHS bulletin from Listed On Date,,
82,G030506,Chittar,ചിറ്റാര്‍,Chittar,Pathanamthitta,Panchayat,Unlisted,2020-04-22,2020-04-30,2020-04-30,,DHS bulletin from Listed On Date,,
83,G030505,Vadaserikara,വടശ്ശേരിക്കര,Vadaserikara,Pathanamthitta,Panchayat,Unlisted,2020-04-22,2020-04-30,2020-04-30,,DHS bulletin from Listed On Date,,
84,M030300,Pathanamthitta,പത്തനംതിട്ട,Pathanamthitta,Pathanamthitta,Municipality,Unlisted,2020-04-22,2020-04-30,2020-04-30,,DHS bulletin from Listed On Date,,
85,C010100,Thiruvananthapuram,തിരുവനന്തപുരം,Thiruvananthapuram,Thiruvananthapuram,Corporation,Unlisted,2020-04-22,2020-04-30,2020-04-30,,DHS bulletin from Listed On Date,,
86,M010100,Varkala,വര്‍ക്കല,Varkala,Thiruvananthapuram,Municipality,Unlisted,2020-04-24,2020-05-14,2020-05-14,"Containment Zones: Wards 16, 17",DHS bulletin from Listed On Date,,
87,G120409,Moopainade,മൂപ്പൈനാട്,Moopainade,Wayanad,Panchayat,Unlisted,2020-04-27,2020-04-30,2020-04-30,,DHS bulletin from Listed On Date,,
88,G060603,Vandanmedu,വണ്ടന്‍മേട്,Vandanmedu,Idukki,Panchayat,Unlisted,2020-04-27,2020-05-14,2020-05-14,"Containment Zones: Wards 12, 14",DHS bulletin from Listed On Date,,
89,G060605,Irattayar,ഇരട്ടയാര്‍,Irattayar,Idukki,Panchayat,Unlisted,2020-04-27,2020-05-07,2020-05-07,Containment Zone: Ward 9,DHS bulletin from Listed On Date,,
90,G050302,Aimanam,അയ്മനം,Aimanam,Kottayam,Panchayat,Unlisted,2020-04-27,2020-05-07,2020-05-07,Containment Zone: Whole LSG,DHS bulletin from Listed On Date,,
91,G050206,Velloor,വെള്ളൂര്‍,Velloor,Kottayam,Panchayat,Unlisted,2020-04-27,2020-05-14,2020-05-14,Containment Zone: Whole LSG,DHS bulletin from Listed On Date,,
92,G050801,Ayarkkunnam,അയര്‍കുന്നം,Ayarkkunnam,Kottayam,Panchayat,Unlisted,2020-04-27,2020-05-07,2020-05-07,Containment Zone: Whole LSG,DHS bulletin from Listed On Date,,
93,G050205,Thalayolaparampu,തലയോലപ്പറമ്പ്,Thalayolaparampu,Kottayam,Panchayat,Unlisted,2020-04-27,2020-05-07,2020-05-07,Containment Zone: Whole LSG,DHS bulletin from Listed On Date,,
94,G060303,Karunapuram,കരുണാപുരം,Karunapuram,Idukki,Panchayat,Unlisted,2020-04-28,2020-05-07,2020-05-07,"Containment Zones: Wards 12, 13, 14, 15",DHS bulletin from Listed On Date,,
95,G060202,Munnar,മൂന്നാര്‍,Munnar,Idukki,Panchayat,Unlisted,2020-04-28,2020-05-07,2020-05-07,"Containment Zones: Wards 9, 10, 11, 13, 19",DHS bulletin from Listed On Date,,
96,G060703,Idavetty,ഇടവെട്ടി,Idavetty,Idukki,Panchayat,Unlisted,2020-04-28,2020-05-07,2020-05-07,Containment Zone: Ward 9,DHS bulletin from Listed On Date,,
97,G050601,Melukavu,മേലുകാവ്,Melukavu,Kottayam,Panchayat,Unlisted,2020-04-28,2020-05-07,2020-05-07,Containment Zone: Whole LSG,DHS bulletin from Listed On Date,,
98,M050300,Changanassery,ചങ്ങനാശ്ശേരി,Changanassery,Kottayam,Municipality,Unlisted,2020-04-28,2020-05-07,2020-05-07,Containment Zone: Whole LSG,DHS bulletin from Listed On Date,,
99,G101404,Kalady,കാലടി,Kalady,Malappuram,Panchayat,Unlisted,2020-04-28,2020-05-07,2020-05-07,,DHS bulletin from Listed On Date,,
100,G091201,Alathur,ആലത്തൂര്‍,Alathur,Palakkad,Panchayat,Unlisted,2020-04-22,2020-04-30,2020-04-30,,DHS bulletin from Listed On Date,,
101,G060806,Vandiperiyar,വണ്ടിപ്പെരിയാര്‍,Vandiperiyar,Idukki,Panchayat,Unlisted,2020-04-29,2020-05-07,2020-05-07,"Containment Zones: Ward 5, 9",DHS bulletin from Listed On Date,,
102,G140402,Ajanoor,അജാനൂര്‍,Ajanoor,Kasaragod,Panchayat,Unlisted,2020-04-29,2020-05-07,2020-05-07,,DHS bulletin from Listed On Date,,
103,G020101,Oachira,ഓച്ചിറ,Oachira,Kollam,Panchayat,Unlisted,2020-04-30,2020-05-07,2020-05-07,,DHS bulletin from Listed On Date,,
104,G020902,Thrikkovilvattom,തൃക്കോവില്‍വട്ടം,Thrikkovilvattom,Kollam,Panchayat,Unlisted,2020-04-30,2020-05-07,2020-05-07,,DHS bulletin from Listed On Date,,
105,G050106,Udayanapuram,ഉദയനാപുരം,Udayanapuram,Kottayam,Panchayat,Unlisted,2020-04-30,2020-05-07,2020-05-07,Containment Zone: Whole LSG,DHS bulletin from Listed On Date,,
106,M010400,Neyyattinkara,നെയ്യാറ്റിന്‍കര,Neyyattinkara,Thiruvananthapuram,Municipality,Unlisted,2020-04-30,2020-05-14,2020-05-14,"Containment Zones: Wards 1, 2, 3, 4, 5, 37, 40, 41, 42, 43, 44",DHS bulletin from Listed On Date,,
107,G140401,Uduma,ഉദുമ,Uduma,Kasaragod,Panchayat,Unlisted,2020-05-01,2020-05-07,2020-05-07,,DHS bulletin from Listed On Date,,
108,G101502,Marancherry,മാറഞ്ചരി,Marancherry,Malappuram,Panchayat,Unlisted,2020-05-01,2020-05-07,2020-05-07,,DHS bulletin from Listed On Date,,
109,G011103,Kulathoor,കുളത്തൂര്‍,Kulathoor,Thiruvananthapuram,Panchayat,Unlisted,2020-05-01,2020-05-07,2020-05-07,,DHS bulletin from Listed On Date,,
110,G011104,Parassala,പാറശ്ശാല,Parassala,Thiruvananthapuram,Panchayat,Unlisted,2020-05-01,2020-05-07,2020-05-07,,DHS bulletin from Listed On Date,,
111,G011001,Athiyannoor,അതിയന്നൂര്‍,Athiyannoor,Thiruvananthapuram,Panchayat,Unlisted,2020-05-01,2020-05-07,2020-05-07,,DHS bulletin from Listed On Date,,
112,G011102,Karode,കാരോട്,Karode,Thiruvananthapuram,Panchayat,Unlisted,2020-05-01,2020-05-07,2020-05-07,,DHS bulletin from Listed On Date,,
113,G010907,Vellarada,വെള്ളറട,Vellarada,Thiruvananthapuram,Panchayat,Unlisted,2020-05-01,2020-05-07,2020-05-07,,DHS bulletin from Listed On Date,,
114,G010908,Amboori,അമ്പൂരി,Amboori,Thiruvananthapuram,Panchayat,Unlisted,2020-05-01,2020-05-07,2020-05-07,,DHS bulletin from Listed On Date,,
115,G010801,Balaramapuram,ബാലരാമപുരം,Balaramapuram,Thiruvananthapuram,Panchayat,Unlisted,2020-05-01,2020-05-07,2020-05-07,,DHS bulletin from Listed On Date,,
116,G010906,Kunnathukal,കുന്നത്തുകാല്‍,Kunnathukal,Thiruvananthapuram,Panchayat,Unlisted,2020-05-01,2020-05-07,2020-05-07,,DHS bulletin from Listed On Date,,
122,G120105,Edavaka,എടവക,Edavaka,Wayanad,Panchayat,Active,2020-05-05,,2020-05-19,Containment Zones: All Wards,DHS bulletin from Listed On Date,,
118,G070904,Edakkattuvayal,എടയ്ക്കാട്ടുവയല്‍,Edakkattuvayal,Ernakulam,Panchayat,Unlisted,2020-05-03,2020-05-14,2020-05-14,Containment Zones: Ward 14,DHS bulletin from Listed On Date,,
119,G071407,Manjalloor,മഞ്ഞള്ളൂര്‍,Manjalloor,Ernakulam,Panchayat,Unlisted,2020-05-03,2020-05-07,2020-05-07,,DHS bulletin from Listed On Date,,
120,G060205,Santhanpara,ശാന്തന്‍പാറ,Santhanpara,Idukki,Panchayat,Unlisted,2020-05-03,2020-05-14,2020-05-14,Containment Zone: Ward 8,DHS bulletin from Listed On Date,,
123,G120303,Ambalavayal,അമ്പലവയല്‍,Ambalavayal,Wayanad,Panchayat,Unlisted,2020-05-05,2020-05-21,2020-05-21,Containment Zones: Mangodu Colony,DHS bulletin from Listed On Date,,
124,G120102,Vellamunda,വെള്ളമുണ്ട,Vellamunda,Wayanad,Panchayat,Unlisted,2020-05-05,2020-05-21,2020-05-21,,DHS bulletin from Listed On Date,,
125,G120301,Meenangadi,മീനങ്ങാടി,Meenangadi,Wayanad,Panchayat,Active,2020-05-05,,2020-05-19,"Containment Zones: Wards 7, 8, 9, 10, 11, 13, 14, 15, 16, 17, 18,
Thachambathu Colony",DHS bulletin from Listed On Date,,
127,G120302,Nenmeni,നെന്മേനി,Nenmeni,Wayanad,Panchayat,Active,2020-05-11,,2020-05-19,"Containment Zones: Wards 7, 8, 9, 10, 11, 12, 13, 14
",DHS bulletin from Listed On Date,,
13,G130905,Pattiom,പാട്യം,Pattiom,Kannur,Panchayat,Active,2020-04-22,,2020-05-19,"Containment Zone: Ward 8,9",DHS bulletin from Listed On Date,,
126,G090806,Thenkurissi,തേങ്കുറിശ്ശി,Thenkurissi,Palakkad,Panchayat,Unlisted,2020-05-07,2020-05-14,2020-05-14,"Containment Zone: Wards 15, 12",DHS bulletin from Listed On Date,,
31,G130801,Kathirur,കതിരൂര്‍,Kathirur,Kannur,Panchayat,Active,2020-04-23,,2020-05-19,Containment Zone: Ward 5,DHS bulletin from Listed On Date,,
128,G131102,Kelakom,കേളകം,Kelakom,Kannur,Panchayat,Active,2020-05-14,,2020-05-19,Containment Zone: Ward 9,DHS bulletin from Listed On Date,,
129,G140306,Kumbala,കുമ്പള,Kumbala,Kasaragod,Panchayat,Unlisted,2020-05-14,2020-05-21,2020-05-21,Containment Zone: Ward 9,DHS bulletin from Listed On Date,,
130,G140101,Mangalpady,മംഗല്‍പാടി,Mangalpady,Kasaragod,Panchayat,Unlisted,2020-05-14,2020-05-21,2020-05-21,,DHS bulletin from Listed On Date,,
131,G140106,Paivalike,പൈവളികെ,Paivalike,Kasaragod,Panchayat,Active,2020-05-14,,2020-05-19,"Containment Zone: Wards 3, 4",DHS bulletin from Listed On Date,,
132,G050406,Uzhavoor,ഉഴവൂര്‍,Uzhavoor,Kottayam,Panchayat,Unlisted,2020-05-14,2020-05-21,2020-05-19,,DHS bulletin from Listed On Date,,
133,G080104,Punnayurkulam,പുന്നയൂര്‍ക്കുളം,Punnayurkulam,Thrissur,Panchayat,Unlisted,2020-05-14,2020-05-21,2020-05-21,,DHS bulletin from Listed On Date,,
134,M130100,Mattannur,മട്ടന്നൂര്‍,Mattannur,Kannur,Municipality,Active,2020-05-15,,2020-05-19,Containment Zone: Ward 28,DHS bulletin from Listed On Date,,
135,G140504,Kallar,കള്ളാര്‍,Kallar,Kasaragod,Panchayat,Active,2020-05-16,,2020-05-19,Containment Zone: Ward 4,DHS bulletin from Listed On Date,,
136,M140300,Neeleswaram,നീലേശ്വരം,Neeleswaram,Kasaragod,Municipality,Unlisted,2020-05-16,2020-05-21,2020-05-21,Containment Zone: Ward 17,DHS bulletin from Listed On Date,,
137,M140200,Kasaragod,കാസര്‍കോഡ്,Kasaragod,Kasaragod,Municipality,Active,2020-05-16,,2020-05-19,"Containment Zone: Wards 4, 32",DHS bulletin from Listed On Date,,
138,G120106,Thavinjal,തവിഞ്ഞാല്‍,Thavinjal,Wayanad,Panchayat,Active,2020-05-16,,2020-05-19,Containment Zone: Ward 6,DHS bulletin from Listed On Date,,
139,G060603,Vandanmedu,വണ്ടന്‍മേട്,Vandanmedu,Idukki,Panchayat,Active,2020-05-16,,2020-05-19,"Containment Zone: Wards 8, 9, 11, 12, 14, 15",DHS bulletin from Listed On Date,,
140,G060303,Karunapuram,കരുണാപുരം,Karunapuram,Idukki,Panchayat,Active,2020-05-16,,2020-05-19,"Containment Zone: Wards 12,13",DHS bulletin from Listed On Date,,
141,G120201,Panamaram,പനമരം,Panamaram,Wayanad,Panchayat,Active,2020-05-17,,2020-05-19,"Containment Zone: Wards 1,2",DHS bulletin from Listed On Date,,
142,G021002,Kalluvathukkal,കല്ലുവാതുക്കല്‍,Kalluvathukkal,Kollam,Panchayat,Active,2020-05-18,,2020-05-19,Containment Zone: All Wards,DHS bulletin from Listed On Date,,
143,G090402,Kadambazhippuram,കടമ്പഴിപ്പുറം,Kadambazhippuram,Palakkad,Panchayat,Active,2020-05-18,,2020-05-19,"Containment Zone: Wards 2, 11, 18",DHS bulletin from Listed On Date,,
144,G090203,Muthuthala,മുതുതല,Muthuthala,Palakkad,Panchayat,Active,2020-05-18,,2020-05-19,Containment Zone: Ward 10,DHS bulletin from Listed On Date,,
145,G090407,Karakkurissi,കാരാകുറുശ്ശി,Karakkurissi,Palakkad,Panchayat,Active,2020-05-18,,2020-05-19,Containment Zone: Ward 6,DHS bulletin from Listed On Date,,
146,G090801,Kottayi,കോട്ടായി,Kottayi,Palakkad,Panchayat,Active,2020-05-18,,2020-05-19,Containment Zone: Ward 4,DHS bulletin from Listed On Date,,
147,G091003,Muthalamada,മുതലമട,Muthalamada,Palakkad,Panchayat,Active,2020-05-18,,2020-05-19,"Containment Zone: Wards 15, 16, 19, 20",DHS bulletin from Listed On Date,,
148,M130700,Panoor,പാനൂര്‍,Panoor,Kannur,Municipality,Active,2020-05-19,,2020-05-19,Containment Zone: Ward 32,DHS bulletin from Listed On Date,,
149,G130802,Chokli,ചൊക്ളി,Chokli,Kannur,Panchayat,Active,2020-05-19,,2020-05-19,Containment Zone: Ward 9,DHS bulletin from Listed On Date,,
150,G130406,Mayyil,മയ്യില്‍,Mayyil,Kannur,Panchayat,Active,2020-05-19,,2020-05-19,Containment Zone: Ward 1,DHS bulletin from Listed On Date,,
151,G051107,Koruthodu,കോരുത്തോട്,Koruthodu,Kottayam,Panchayat,Unlisted,2020-05-19,2020-05-21,2020-05-21,Containment Zone: Ward 2,DHS bulletin from Listed On Date,,
152,G090306,Thrikkadeeri,തൃക്കടീരി,Thrikkadeeri,Palakkad,Panchayat,Active,2020-05-21,,2020-05-21,"Containment Zone: Wards 4,10",DHS bulletin from Listed On Date,,
153,G090405,Sreekrishnapuram,ശ്രീകൃഷ്ണപുരം,Sreekrishnapuram,Palakkad,Panchayat,Active,2020-05-21,,2020-05-21,Containment Zone: Ward 5,DHS bulletin from Listed On Date,,
154,G130701,Dharmadom,ധര്‍മ്മടം,Dharmadom,Kannur,Panchayat,Active,2020-05-21,,2020-05-21,Containment Zone: Ward 13,DHS bulletin from Listed On Date,,
155,G090104,Nagalassery,നാഗലശ്ശേരി,Nagalassery,Palakkad,Panchayat,Active,2020-05-23,,2020-05-23,Containment Zone: Ward 15,DHS bulletin from Listed On Date,,
156,G130501,Chirakkal,ചിറക്കല്‍,Chirakkal,Kannur,Panchayat,Active,2020-05-23,,2020-05-23,Containment Zone: Ward 2,DHS bulletin from Listed On Date,,
157,G131106,Malur,മാലൂര്‍,Malur,Kannur,Panchayat,Active,2020-05-23,,2020-05-23,Containment Zone: Ward 9,DHS bulletin from Listed On Date,,
158,C130100,Kannur,കണ്ണൂര്‍,Kannur,Kannur,Corporation,Active,2020-05-23,,2020-05-23,Containment Zone: Ward 5,DHS bulletin from Listed On Date,,
159,M130400,Payyannur,പയ്യന്നൂര്‍,Payyannur,Kannur,Municipality,Active,2020-05-23,,2020-05-23,Containment Zone: Ward 13,DHS bulletin from Listed On Date,,
160,G130605,Chembilode,ചെമ്പിലോട്,Chembilode,Kannur,Panchayat,Active,2020-05-23,,2020-05-23,Containment Zone: Ward 1,DHS bulletin from Listed On Date,,
161,G131002,Ayyankunnu,അയ്യന്‍കുന്ന്,Ayyankunnu,Kannur,Panchayat,Active,2020-05-23,,2020-05-23,"Containment Zone: Wards 7, 8, 9, 10, 11",DHS bulletin from Listed On Date,,
162,G130906,Kottayam,കോട്ടയം,Kottayam,Kannur,Panchayat,Active,2020-05-23,,2020-05-23,Containment Zone: Ward 12,DHS bulletin from Listed On Date,,
163,G051107,Koruthodu,കോരുത്തോട്,Koruthodu,Kottayam,Panchayat,Active,2020-05-23,,2020-05-23,Containment Zone: Ward 2,DHS bulletin from Listed On Date,,
164,G140502,Kodom-Bellur,കോടോം ബേളൂര്‍,Kodom-Bellur,Kasaragod,Panchayat,Active,2020-05-24,,2020-05-24,Containment Zone: Ward 14,DHS bulletin from Listed On Date,,
165,G090301,Ambalappara,അമ്പലപ്പാറ,Ambalappara,Palakkad,Panchayat,Active,2020-05-24,,2020-05-24,"Containment Zone: Wards 15,19,20",DHS bulletin from Listed On Date,,
166,G090406,Vellinezhi,വെള്ളിനേഴി,Vellinezhi,Palakkad,Panchayat,Active,2020-05-24,,2020-05-24,Containment Zone: Ward 4,DHS bulletin from Listed On Date,,
167,M090100,Ottappalam,ഒറ്റപ്പാലം,Ottappalam,Palakkad,Municipality,Active,2020-05-24,,2020-05-24,"Containment Zone: Wards 4,6",DHS bulletin from Listed On Date,,
168,G090307,Vallapuzha,വല്ലപ്പുഴ,Vallapuzha,Palakkad,Panchayat,Active,2020-05-24,,2020-05-24,Containment Zone: Ward 9,DHS bulletin from Listed On Date,,
169,G090904,Perumatty,പെരുമാട്ടി,Perumatty,Palakkad,Panchayat,Active,2020-05-24,,2020-05-24,"Containment Zone: Wards 9,14",DHS bulletin from Listed On Date,,
170,G090705,Mundur,മുണ്ടൂര്‍,Mundur,Palakkad,Panchayat,Active,2020-05-24,,2020-05-24,"Containment Zone: Wards 16,18",DHS bulletin from Listed On Date,,
171,G090402,Kadambazhippuram,കടമ്പഴിപ്പുറം,Kadambazhippuram,Palakkad,Panchayat,Active,2020-05-24,,2020-05-24,Containment Zone: Ward 16,DHS bulletin from Listed On Date,,
172,G051004,Vellavoor,വെള്ളാവൂര്‍,Vellavoor,Kottayam,Panchayat,Active,2020-05-24,,2020-05-24,Containment Zone: Ward 1,DHS bulletin from Listed On Date,,
173,G050706,Meenadom,മീനടം,Meenadom,Kottayam,Panchayat,Active,2020-05-24,,2020-05-24,Containment Zone: Ward 13,DHS bulletin from Listed On Date,,
174,G040807,Pandanadu,പാണ്ടനാട്,Pandanadu,Alappuzha,Panchayat,Active,2020-05-24,,2020-05-24,"Containment Zone: Wards 1,5",DHS bulletin from Listed On Date,,
175,M040100,Chengannur,ചെങ്ങന്നൂര്‍,Chengannur,Alappuzha,Municipality,Active,2020-05-24,,2020-05-24,Containment Zone: Ward 3,DHS bulletin from Listed On Date,,
176,G110101,Azhiyur,അഴിയൂര്‍,Azhiyur,Kozhikode,Panchayat,Active,2020-05-24,,2020-05-24,Containment Zone: Ward 13,DHS bulletin from Listed On Date,,
177,G110104,Onchiyam,ഒഞ്ചിയം,Onchiyam,Kozhikode,Panchayat,Active,2020-05-24,,2020-05-24,Containment Zone: Ward 14,DHS bulletin from Listed On Date,,
178,G131005,Koodali,കൂടാളി,Koodali,Kannur,Panchayat,Active,2020-05-24,,2020-05-24,Containment Zone: Ward 15,DHS bulletin from Listed On Date,,
179,G131101,Kanichar,കണിച്ചാര്‍,Kanichar,Kannur,Panchayat,Active,2020-05-24,,2020-05-24,Containment Zone: Ward 12,DHS bulletin from Listed On Date,,
180,G130607,Peralassery,പെരളശ്ശേരി,Peralassery,Kannur,Panchayat,Active,2020-05-24,,2020-05-24,Containment Zone: Ward 5,DHS bulletin from Listed On Date,,
181,G130806,Panniyannur,പന്ന്യന്നൂര്‍,Panniyannur,Kannur,Panchayat,Active,2020-05-24,,2020-05-24,Containment Zone: Ward 6,DHS bulletin from Listed On Date,,
